[{"OBJECT_NAME":"QIANFAN-3","OBJECT_ID":"2024-140C","EPOCH":"2026-03-09T21:39:48.921984","MEAN_MOTION":13.51000316,"ECCENTRICITY":0.00127012,"INCLINATION":88.9687,"RA_OF_ASC_NODE":290.2165,"ARG_OF_PERICENTER":314.0663,"MEAN_ANOMALY":45.9441,"EPHEMERIS_TYPE":0,"CLASSIFICATION_TYPE":"U","NORAD_CAT_ID":60381,"ELEMENT_SET_NO":999,"REV_AT_EPOCH":7908,"BSTAR":0.00010335284,"MEAN_MOTION_DOT":7.9e-7,"MEAN_MOTION_DDOT":0},{"OBJECT_NAME":"THOR ABLESTAR R\/B","OBJECT_ID":"1964-063A","EPOCH":"2026-03-09T23:54:10.270080","MEAN_MOTION":13.5631347,"ECCENTRICITY":0.00266304,"INCLINATION":90.224,"RA_OF_ASC_NODE":72.8661,"ARG_OF_PERICENTER":149.2616,"MEAN_ANOMALY":264.015,"EPHEMERIS_TYPE":0,"CLASSIFICATION_TYPE":"U","NORAD_CAT_ID":893,"ELEMENT_SET_NO":999,"REV_AT_EPOCH":3853,"BSTAR":3.9806942e-5,"MEAN_MOTION_DOT":3.7e-7,"MEAN_MOTION_DDOT":0}]
